NORAD_CAT_ID,OBJECT_NAME,OBJECT_TYPE,EPOCH,MEAN_MOTION,ECCENTRICITY,INCLINATION,RA_OF_ASC_NODE,ARG_OF_PERICENTER,MEAN_ANOMALY,BSTAR,MEAN_MOTION_DOT,MEAN_MOTION_DDOT,TLE_LINE0,TLE_LINE1,TLE_LINE2,SEMIMAJOR_AXIS,PERIOD,APOGEE,PERIGEE,DECAYED
52862.0,STARLINK-4010,PAYLOAD,2022-08-09 22:00:00,15.63878586,0.0001075,53.2175,140.7741,69.8579,281.5222,-0.012243,-0.01050817,0.0,0 STARLINK-4010,1 52862U 22062AJ  22221.91667824 -.01050817  00000-0 -12243-1 0  9994,2 52862  53.2175 140.7741 0001075  69.8579 281.5222 15.63878586  1302,6754.603,92.079,377.194,375.742,0.0
52862.0,STARLINK-4010,PAYLOAD,2022-08-10 06:00:00,15.63116119,0.0001078,53.2173,139.15,69.0317,359.6097,-0.012544,-0.01061387,0.0,0 STARLINK-4010,1 52862U 22062AJ  22222.25001157 -.01061387  00000-0 -12544-1 0  9991,2 52862  53.2173 139.1500 0001078  69.0317 359.6097 15.63116119  8952,6756.799,92.124,379.393,377.936,0.0
52862.0,STARLINK-4010,PAYLOAD,2022-08-10 14:00:01,15.62356155,0.0001264,53.2175,137.5244,61.3265,83.665,-0.0129169999999999,-0.01060832,0.0,0 STARLINK-4010,1 52862U 22062AJ  22222.58334491 -.01060832  00000-0 -12917-1 0  9995,2 52862  53.2175 137.5244 0001264  61.3265  83.6650 15.62356155  1301,6758.99,92.168,381.709,380.001,0.0
52862.0,STARLINK-4010,PAYLOAD,2022-08-10 20:00:01,15.61787783,0.0001286,53.2178,136.3082,59.7115,51.9417,-0.013234,-0.01062757,0.0,0 STARLINK-4010,1 52862U 22062AJ  22222.83334491 -.01062757  00000-0 -13234-1 0  9994,2 52862  53.2178 136.3082 0001286  59.7115  51.9417 15.61787783  9042,6760.63,92.202,383.364,381.625,0.0
52862.0,STARLINK-4010,PAYLOAD,2022-08-10 22:00:00,15.61597438,0.0001312,53.2177,135.9036,64.6451,155.7813,-0.0133199999999999,-0.01061839,0.0,0 STARLINK-4010,1 52862U 22062AJ  22222.91667824 -.01061839  00000-0 -13320-1 0  9998,2 52862  53.2177 135.9036 0001312  64.6451 155.7813 15.61597438  1303,6761.179,92.213,383.931,382.157,0.0
52862.0,STARLINK-4010,PAYLOAD,2022-08-11 14:00:01,15.60077682,0.000111,53.2173,132.6647,56.8031,311.758,-0.014115,-0.01060851,0.0,0 STARLINK-4010,1 52862U 22062AJ  22223.58334491 -.01060851  00000-0 -14115-1 0  9999,2 52862  53.2173 132.6647 0001110  56.8031 311.7580 15.60077682  1302,6765.569,92.303,388.185,386.684,0.0
52862.0,STARLINK-4010,PAYLOAD,2022-08-11 22:00:00,15.59319952,0.0001301,53.2175,131.0496,53.5571,27.7003,-0.014565,-0.01063104,0.0,0 STARLINK-4010,1 52862U 22062AJ  22223.91667824 -.01063104  00000-0 -14565-1 0  9998,2 52862  53.2175 131.0496 0001301  53.5571  27.7003 15.59319952  9213,6767.761,92.348,390.507,388.746,0.0
52862.0,STARLINK-4010,PAYLOAD,2022-08-12 14:00:01,15.57799097,0.0001291,53.2174,127.8215,62.3866,161.5298,-0.015374,-0.0105937999999999,0.0,0 STARLINK-4010,1 52862U 22062AJ  22224.58334491 -.01059380  00000-0 -15374-1 0  9993,2 52862  53.2174 127.8215 0001291  62.3866 161.5298 15.57799097  1302,6772.165,92.438,394.904,393.156,0.0
52862.0,STARLINK-4010,PAYLOAD,2022-08-12 20:00:01,15.57229957,0.0001395999999999,53.2177,126.6139,60.3218,126.2143,-0.015718,-0.01060027,0.0,0 STARLINK-4010,1 52862U 22062AJ  22224.83335648 -.01060027  00000-0 -15718-1 0  9998,2 52862  53.2177 126.6139 0001396  60.3218 126.2143 15.57229957  9355,6773.815,92.472,396.626,394.735,0.0
52862.0,STARLINK-4010,PAYLOAD,2022-08-12 22:00:01,15.57040696,0.0001250999999999,53.2175,126.2121,60.7926,233.1471,-0.0158449999999999,-0.01060877,0.0,0 STARLINK-4010,1 52862U 22062AJ  22224.91668981 -.01060877  00000-0 -15845-1 0  9990,2 52862  53.2175 126.2121 0001251  60.7926 233.1471 15.57040696  1300,6774.364000000001,92.483,397.077,395.382,0.0
52862.0,STARLINK-4010,PAYLOAD,2022-08-13 14:00:01,15.55520938,0.0001219,53.2175,122.9948,55.7969,15.2611,-0.01676,-0.01060201,0.0,0 STARLINK-4010,1 52862U 22062AJ  22225.58334491 -.01060201  00000-0 -16760-1 0  9998,2 52862  53.2175 122.9948 0001219  55.7969  15.2611 15.55520938  1300,6778.776,92.573,401.467,399.814,0.0
52862.0,STARLINK-4010,PAYLOAD,2022-08-13 22:00:00,15.54760871,0.0001395999999999,53.2176,121.3911,56.4966,81.7824,-0.017208,-0.0105852,0.0,0 STARLINK-4010,1 52862U 22062AJ  22225.91667824 -.01058520  00000-0 -17208-1 0  9993,2 52862  53.2176 121.3911 0001396  56.4966  81.7824 15.54760871  1300,6780.985,92.619,403.796,401.903,0.0
52862.0,STARLINK-4010,PAYLOAD,2022-08-14 14:00:01,15.53241704,0.0001207,53.2173,118.1847,68.9238,201.0617,-0.018185,-0.01057893,0.0,0 STARLINK-4010,1 52862U 22062AJ  22226.58334491 -.01057893  00000-0 -18185-1 0  9995,2 52862  53.2173 118.1847 0001207  68.9238 201.0617 15.53241704  1305,6785.406,92.709,408.09,406.452,0.0
52862.0,STARLINK-4010,PAYLOAD,2022-08-14 22:00:00,15.52483758,0.0001347,53.2174,116.5865,48.3497,286.118,-0.018731,-0.01059832,0.0,0 STARLINK-4010,1 52862U 22062AJ  22226.91667824 -.01059832  00000-0 -18731-1 0  9993,2 52862  53.2174 116.5865 0001347  48.3497 286.1180 15.52483758  1307,6787.614000000001,92.755,410.393,408.565,0.0
52862.0,STARLINK-4010,PAYLOAD,2022-08-15 06:00:00,15.51724461,0.0001032,53.2171,114.9889,77.2246,320.8139,-0.019242,-0.01059182,0.0,0 STARLINK-4010,1 52862U 22062AJ  22227.25001157 -.01059182  00000-0 -19242-1 0  9998,2 52862  53.2171 114.9889 0001032  77.2246 320.8139 15.51724461  9739,6789.828,92.8,412.394,410.992,0.0
52862.0,STARLINK-4010,PAYLOAD,2022-08-15 14:00:01,15.50915685,0.0001092,53.2173,113.3908,68.9752,31.7341,-0.01762,-0.00951595,0.0,0 STARLINK-4010,1 52862U 22062AJ  22227.58334491 -.00951595  00000-0 -17620-1 0  9990,2 52862  53.2173 113.3908 0001092  68.9752  31.7341 15.50915685  1308,6792.188,92.848,414.795,413.312,0.0
52862.0,STARLINK-4010,PAYLOAD,2022-08-15 22:00:00,15.50140673,0.000117,53.2173,111.798,61.2778,101.1738,-0.0064944,-0.00355993,0.0,0 STARLINK-4010,1 52862U 22062AJ  22227.91667824 -.00355993  00000-0 -64944-2 0  9998,2 52862  53.2173 111.7980 0001170  61.2778 101.1738 15.50140673  1300,6794.4519999999975,92.895,417.112,415.522,0.0
52862.0,STARLINK-4010,PAYLOAD,2022-08-16 06:00:02,15.49884324,0.0001215,53.217,110.2045,76.382,147.1965,4.1924e-06,-2.13e-06,0.0,0 STARLINK-4010,1 52862U 22062AJ  22228.25002315 -.00000213  00000-0  41924-5 0  9991,2 52862  53.2170 110.2045 0001215  76.3820 147.1965 15.49884324  9898,6795.201,92.91,417.892,416.241,0.0
52862.0,STARLINK-4010,PAYLOAD,2022-08-16 14:00:01,15.49893224,0.0001338,53.2145,108.6036,72.969,211.4089,0.00099477,0.00056432,0.0,0 STARLINK-4010,1 52862U 22062AJ  22228.58334491  .00056432  00000-0  99477-3 0  9997,2 52862  53.2145 108.6036 0001338  72.9690 211.4089 15.49893224  1303,6795.175,92.91,417.949,416.131,0.0
52862.0,STARLINK-4010,PAYLOAD,2022-08-16 22:00:00,15.49929294,0.0001476,53.2144,107.012,65.9612,279.3585,-0.00023828,-0.00013973,0.0,0 STARLINK-4010,1 52862U 22062AJ  22228.91667824 -.00013973  00000-0 -23828-3 0  9995,2 52862  53.2144 107.0120 0001476  65.9612 279.3585 15.49929294  1309,6795.07,92.907,417.93800000000016,415.932,0.0
52862.0,STARLINK-4010,PAYLOAD,2022-08-17 06:00:02,15.49951719,0.0001406,53.2145,105.4186,61.1348,345.2015,-0.00079765,-0.00045567,0.0,0 STARLINK-4010,1 52862U 22062AJ  22229.25002315 -.00045567  00000-0 -79765-3 0  9996,2 52862  53.2145 105.4186 0001406  61.1348 345.2015 15.49951719 10040,6795.004,92.906,417.825,415.914,0.0
52862.0,STARLINK-4010,PAYLOAD,2022-08-17 14:00:01,15.49886058,0.0001176,53.2152,103.8239,72.1797,35.0786,6.1178e-05,3.022e-05,0.0,0 STARLINK-4010,1 52862U 22062AJ  22229.58334491  .00003022  00000-0  61178-4 0  9993,2 52862  53.2152 103.8239 0001176  72.1797  35.0786 15.49886058  1304,6795.196,92.91,417.86,416.262,0.0
52862.0,STARLINK-4010,PAYLOAD,2022-08-18 08:00:01,15.49945269,0.0001224,53.2158,100.2403,66.9667,267.3598,-0.002067,-0.00116286,0.0,0 STARLINK-4010,1 52862U 22062AJ  22230.33334491 -.00116286  00000-0 -20670-2 0  9997,2 52862  53.2158 100.2403 0001224  66.9667 267.3598 15.49945269 10216,6795.023,92.907,417.72,416.056,0.0
52862.0,STARLINK-4010,PAYLOAD,2022-08-18 14:00:01,15.49842753,0.0001315,53.216,99.0445,75.9952,214.0448,0.00060251,0.00033841,0.0,0 STARLINK-4010,1 52862U 22062AJ  22230.58334491  .00033841  00000-0  60251-3 0  9997,2 52862  53.2160  99.0445 0001315  75.9952 214.0448 15.49842753  1305,6795.323,92.913,418.081,416.294,0.0
52862.0,STARLINK-4010,PAYLOAD,2022-08-18 22:00:00,15.49864203,0.0001436,53.2161,97.4535,68.0166,282.9008,-4.6664e-05,-3.097e-05,0.0,0 STARLINK-4010,1 52862U 22062AJ  22230.91667824 -.00003097  00000-0 -46664-4 0  9998,2 52862  53.2161  97.4535 0001436  68.0166 282.9008 15.49864203  1302,6795.26,92.911,418.101,416.149,0.0
52862.0,STARLINK-4010,PAYLOAD,2022-08-19 14:00:01,15.4987514,0.0001389,53.2166,94.2673,76.0435,36.6605,0.00067159,0.00037836,0.0,0 STARLINK-4010,1 52862U 22062AJ  22231.58334491  .00037836  00000-0  67159-3 0  9990,2 52862  53.2166  94.2673 0001389  76.0435  36.6605 15.49875140  1309,6795.228,92.911,418.037,416.149,0.0
52862.0,STARLINK-4010,PAYLOAD,2022-08-19 16:00:00,15.49957526,0.0001409,53.2168,93.8701,81.7521,136.1599,-0.0027689,-0.00154932,0.0,0 STARLINK-4010,1 52862U 22062AJ  22231.66667824 -.00154932  00000-0 -27689-2 0  9990,2 52862  53.2168  93.8701 0001409  81.7521 136.1599 15.49957526 10420,6794.986999999999,92.906,417.81,415.895,0.0
52862.0,STARLINK-4010,PAYLOAD,2022-08-19 22:00:00,15.49957377,0.0001330999999999,53.2174,92.6788,71.2402,102.3736,-0.010623,-0.00563338,0.0,0 STARLINK-4010,1 52862U 22062AJ  22231.91667824 -.00563338  00000-0 -10623-1 0  9991,2 52862  53.2174  92.6788 0001331  71.2402 102.3736 15.49957377  1304,6794.988,92.906,417.757,415.948,0.0
52862.0,STARLINK-4010,PAYLOAD,2022-08-20 08:00:01,15.49470273,0.0001139999999999,53.2175,90.6891,57.6423,281.8496,-0.020994,-0.01065391,0.0,0 STARLINK-4010,1 52862U 22062AJ  22232.33334491 -.01065391  00000-0 -20994-1 0  9998,2 52862  53.2175  90.6891 0001140  57.6423 281.8496 15.49470273 10522,6796.4119999999975,92.935,419.051,417.502,0.0
